QIANFAN-97              
1 66039U 25233G   25350.65133513  .00000044  00000+0  31055-4 0  9996
2 66039  88.9896  61.7457 0012227  40.8474 319.3606 13.76850429  8512
QIANFAN-98              
1 66040U 25233H   25351.30801941  .00000053  00000+0  31214-4 0  9995
2 66040  88.9955  61.5998 0015748  32.2972 327.9164 13.92094394  8644
QIANFAN-99              
1 66041U 25233J   25350.58422529 -.02035816  00000+0 -23836+1 0  9992
2 66041  88.9954  61.7507 0014518  26.1889 334.0005 13.72440294  8505
QIANFAN-100             
1 66042U 25233K   25350.99065248 -.02007973  00000+0 -20039+1 0  9994
2 66042  88.9950  61.6453 0021254  44.6371 315.6504 13.81919792  8599
QIANFAN-101             
1 66043U 25233L   25351.29533109  .00000278  00000+0  10876-3 0  9993
2 66043  88.9959  61.5057 0015538  28.7019 331.5027 14.26678792  8698
QIANFAN-102             
1 66044U 25233M   25351.09908466 -.01972254  00000+0 -21605+1 0  9998
2 66044  88.9950  61.6799 0012521  25.0518 335.1253 13.76345155  8584
QIANFAN-103             
1 66045U 25233N   25351.25311633  .00000043  00000+0  30991-4 0  9998
2 66045  88.9956  61.6838 0015961  32.9898 327.2260 13.76133884  8599
QIANFAN-104             
1 66046U 25233P   25351.25653423  .00000042  00000+0  28437-4 0  9996
2 66046  88.9957  61.6669 0015059  38.5498 321.6741 13.78654148  8606
